{
  "type": "FeatureCollection",
  "features": [
    {
      "type": "Feature",
      "properties": {
        "norad_id": 66798,
        "name": "STARLINK-36041",
        "group": "last-30-days",
        "lat": 16.24319954131814,
        "lon": 35.934693603213645,
        "alt_km": 331.31331573735406,
        "timestamp": "2025-12-15T15:53:18.662093+00:00",
        "meta_object_name": "STARLINK-36041",
        "meta_object_id": "2025-278H",
        "meta_epoch": "2025-12-14T20:00:06.000192",
        "meta_mean_motion": 15.8137676,
        "meta_eccentricity": 0.00016122,
        "meta_inclination": 42.997,
        "meta_ra_of_asc_node": 239.2229,
        "meta_arg_of_pericenter": 270.9782,
        "meta_mean_anomaly": 205.2064,
        "meta_ephemeris_type": 0,
        "meta_classification_type": "U",
        "meta_norad_cat_id": 66798,
        "meta_element_set_no": 999,
        "meta_rev_at_epoch": 313,
        "meta_bstar": -0.0072925634,
        "meta_mean_motion_dot": -0.01309993,
        "meta_mean_motion_ddot": 0,
        "tle_line1": "1 66798U 25278H   25348.83340278 -.01309993  00000+0 -72926-2 0  9990",
        "tle_line2": "2 66798  42.9970 239.2229 0001612 270.9782 205.2064 15.81376760  3133"
      },
      "geometry": {
        "type": "Point",
        "coordinates": [
          35.934693603213645,
          16.24319954131814
        ]
      }
    },
    {
      "type": "Feature",
      "properties": {
        "norad_id": 66799,
        "name": "STARLINK-36044",
        "group": "last-30-days",
        "lat": 14.812860292350756,
        "lon": 37.66194982022481,
        "alt_km": 331.50455988668364,
        "timestamp": "2025-12-15T15:53:18.662103+00:00",
        "meta_object_name": "STARLINK-36044",
        "meta_object_id": "2025-278J",
        "meta_epoch": "2025-12-14T20:00:06.000192",
        "meta_mean_motion": 15.81350782,
        "meta_eccentricity": 0.00015576,
        "meta_inclination": 42.9969,
        "meta_ra_of_asc_node": 239.2173,
        "meta_arg_of_pericenter": 268.9927,
        "meta_mean_anomaly": 209.4765,
        "meta_ephemeris_type": 0,
        "meta_classification_type": "U",
        "meta_norad_cat_id": 66799,
        "meta_element_set_no": 999,
        "meta_rev_at_epoch": 329,
        "meta_bstar": -0.0073220173,
        "meta_mean_motion_dot": -0.01313187,
        "meta_mean_motion_ddot": 0,
        "tle_line1": "1 66799U 25278J   25348.83340278 -.01313187  00000+0 -73220-2 0  9999",
        "tle_line2": "2 66799  42.9969 239.2173 0001557 268.9927 209.4765 15.81350782  3293"
      },
      "geometry": {
        "type": "Point",
        "coordinates": [
          37.66194982022481,
          14.812860292350756
        ]
      }
    },
    {
      "type": "Feature",
      "properties": {
        "norad_id": 66800,
        "name": "STARLINK-35996",
        "group": "last-30-days",
        "lat": 11.932671879971476,
        "lon": 41.0298476014059,
        "alt_km": 332.18306651786406,
        "timestamp": "2025-12-15T15:53:18.662112+00:00",
        "meta_object_name": "STARLINK-35996",
        "meta_object_id": "2025-278K",
        "meta_epoch": "2025-12-14T20:00:06.000192",
        "meta_mean_motion": 15.81294407,
        "meta_eccentricity": 0.00015994,
        "meta_inclination": 42.9969,
        "meta_ra_of_asc_node": 239.2054,
        "meta_arg_of_pericenter": 273.1661,
        "meta_mean_anomaly": 209.865,
        "meta_ephemeris_type": 0,
        "meta_classification_type": "U",
        "meta_norad_cat_id": 66800,
        "meta_element_set_no": 999,
        "meta_rev_at_epoch": 308,
        "meta_bstar": -0.007394313,
        "meta_mean_motion_dot": -0.01321493,
        "meta_mean_motion_ddot": 0,
        "tle_line1": "1 66800U 25278K   25348.83340278 -.01321493  00000+0 -73943-2 0  9993",
        "tle_line2": "2 66800  42.9969 239.2054 0001599 273.1661 209.8650 15.81294407  3088"
      },
      "geometry": {
        "type": "Point",
        "coordinates": [
          41.0298476014059,
          11.932671879971476
        ]
      }
    },
    {
      "type": "Feature",
      "properties": {
        "norad_id": 66801,
        "name": "STARLINK-36080",
        "group": "last-30-days",
        "lat": 4.620592222212063,
        "lon": 49.135185419440674,
        "alt_km": 333.50916931421125,
        "timestamp": "2025-12-15T15:53:18.662126+00:00",
        "meta_object_name": "STARLINK-36080",
        "meta_object_id": "2025-278L",
        "meta_epoch": "2025-12-14T20:00:06.000192",
        "meta_mean_motion": 15.81168748,
        "meta_eccentricity": 0.00015125,
        "meta_inclination": 42.9968,
        "meta_ra_of_asc_node": 239.1762,
        "meta_arg_of_pericenter": 272.6018,
        "meta_mean_anomaly": 221.7785,
        "meta_ephemeris_type": 0,
        "meta_classification_type": "U",
        "meta_norad_cat_id": 66801,
        "meta_element_set_no": 999,
        "meta_rev_at_epoch": 329,
        "meta_bstar": -0.0076674261,
        "meta_mean_motion_dot": -0.01383287,
        "meta_mean_motion_ddot": 0,
        "tle_line1": "1 66801U 25278L   25348.83340278 -.01383287  00000+0 -76674-2 0  9997",
        "tle_line2": "2 66801  42.9968 239.1762 0001512 272.6018 221.7785 15.81168748  3291"
      },
      "geometry": {
        "type": "Point",
        "coordinates": [
          49.135185419440674,
          4.620592222212063
        ]
      }
    },
    {
      "type": "Feature",
      "properties": {
        "norad_id": 66802,
        "name": "STARLINK-35604",
        "group": "last-30-days",
        "lat": 13.435740115126439,
        "lon": 39.28883958279852,
        "alt_km": 331.66516971324745,
        "timestamp": "2025-12-15T15:53:18.662137+00:00",
        "meta_object_name": "STARLINK-35604",
        "meta_object_id": "2025-278M",
        "meta_epoch": "2025-12-14T20:00:06.000192",
        "meta_mean_motion": 15.81334229,
        "meta_eccentricity": 0.00015376,
        "meta_inclination": 42.9969,
        "meta_ra_of_asc_node": 239.2116,
        "meta_arg_of_pericenter": 266.9811,
        "meta_mean_anomaly": 213.6419,
        "meta_ephemeris_type": 0,
        "meta_classification_type": "U",
        "meta_norad_cat_id": 66802,
        "meta_element_set_no": 999,
        "meta_rev_at_epoch": 329,
        "meta_bstar": -0.0073421498,
        "meta_mean_motion_dot": -0.01315439,
        "meta_mean_motion_ddot": 0,
        "tle_line1": "1 66802U 25278M   25348.83340278 -.01315439  00000+0 -73421-2 0  9999",
        "tle_line2": "2 66802  42.9969 239.2116 0001537 266.9811 213.6419 15.81334229  3294"
      },
      "geometry": {
        "type": "Point",
        "coordinates": [
          39.28883958279852,
          13.435740115126439
        ]
      }
    },
    {
      "type": "Feature",
      "properties": {
        "norad_id": 66803,
        "name": "STARLINK-35565",
        "group": "last-30-days",
        "lat": 10.540674151438196,
        "lon": 42.614381933140955,
        "alt_km": 332.46655122373886,
        "timestamp": "2025-12-15T15:53:18.662146+00:00",
        "meta_object_name": "STARLINK-35565",
        "meta_object_id": "2025-278N",
        "meta_epoch": "2025-12-14T20:00:06.000192",
        "meta_mean_motion": 15.81282996,
        "meta_eccentricity": 0.00015422,
        "meta_inclination": 42.9969,
        "meta_ra_of_asc_node": 239.2001,
        "meta_arg_of_pericenter": 275.0961,
        "meta_mean_anomaly": 210.0862,
        "meta_ephemeris_type": 0,
        "meta_classification_type": "U",
        "meta_norad_cat_id": 66803,
        "meta_element_set_no": 999,
        "meta_rev_at_epoch": 338,
        "meta_bstar": -0.0074593636,
        "meta_mean_motion_dot": -0.01330995,
        "meta_mean_motion_ddot": 0,
        "tle_line1": "1 66803U 25278N   25348.83340278 -.01330995  00000+0 -74594-2 0  9996",
        "tle_line2": "2 66803  42.9969 239.2001 0001542 275.0961 210.0862 15.81282996  3387"
      },
      "geometry": {
        "type": "Point",
        "coordinates": [
          42.614381933140955,
          10.540674151438196
        ]
      }
    },
    {
      "type": "Feature",
      "properties": {
        "norad_id": 66804,
        "name": "STARLINK-36038",
        "group": "last-30-days",
        "lat": 8.996037350045098,
        "lon": 44.345859349630565,
        "alt_km": 332.61198626012447,
        "timestamp": "2025-12-15T15:53:18.662155+00:00",
        "meta_object_name": "STARLINK-36038",
        "meta_object_id": "2025-278P",
        "meta_epoch": "2025-12-14T20:00:06.000192",
        "meta_mean_motion": 15.81238965,
        "meta_eccentricity": 0.00015521,
        "meta_inclination": 42.9972,
        "meta_ra_of_asc_node": 239.194,
        "meta_arg_of_pericenter": 268.22,
        "meta_mean_anomaly": 219.423,
        "meta_ephemeris_type": 0,
        "meta_classification_type": "U",
        "meta_norad_cat_id": 66804,
        "meta_element_set_no": 999,
        "meta_rev_at_epoch": 329,
        "meta_bstar": -0.0075223619,
        "meta_mean_motion_dot": -0.01363938,
        "meta_mean_motion_ddot": 0,
        "tle_line1": "1 66804U 25278P   25348.83340278 -.01363938  00000+0 -75224-2 0  9991",
        "tle_line2": "2 66804  42.9972 239.1940 0001552 268.2200 219.4230 15.81238965  3293"
      },
      "geometry": {
        "type": "Point",
        "coordinates": [
          44.345859349630565,
          8.996037350045098
        ]
      }
    }
  ]
}